Id,Country,City,Catogry,Name,Image,Latitude,Longitude
1,Saudi Arabia,Riyadh,Museum,National  Museum,https://www.bautrip.com/images/what-to-visit/museo-nacional-riad.jpg,24.647776,46.710346
2,Saudi Arabia,Riyadh,Zoo,Riyadh Zoo,https://previews.123rf.com/images/savvas511/savvas5111801/savvas511180100115/93254339-flamingo-in-the-riyadh-zoo-if-saudi-arabia.jpg,24.67564,46.73749
3,Saudi Arabia,Riyadh,Park,King Abdullah Park ,https://www.bautrip.com/images/what-to-visit/king-abdullah-park.jpg,24.666833,46.73705
4,Saudi Arabia,Riyadh,Park,Salam Park ,https://sz8ec43hd29syuhl4ahbnr19-wpengine.netdna-ssl.com/wp-content/uploads/Salam-Park-01-1.jpg,24.621141,46.70836
5,Saudi Arabia,Riyadh,Park,Wadi Namar ,https://i.ytimg.com/vi/82uRaTK49kE/maxresdefault.jpg,24.570762,46.680013
6,Saudi Arabia,Riyadh,Museum,Saqar-Aljazirah Aviation Musem ,http://1.bp.blogspot.com/-xpyu-ruLNBI/TbbY8L-YslI/AAAAAAAAAJU/Hs1D9g2g2LI/s1600/DSCF8527+ed+900x600_filtered.jpg,24.754233,46.738974
7,Saudi Arabia,Riyadh,Park,Wadi Hanifah ,http://www.arabnews.com/sites/default/files/styles/n_670_395/public/2017/06/29/940171-1971291867.jpg?itok=IKbgy4jx,24.593694,46.704988
8,Saudi Arabia,Riyadh,Museum,King Abdulaziz Historical Cente,https://i.pinimg.com/originals/45/7e/a8/457ea867fba38ef11c503781b5e341ec.jpg,24.647886,46.710391
9,Saudi Arabia,Riyadh,Mall,Alfaisaliah tower landscape,https://media-cdn.tripadvisor.com/media/photo-s/05/ee/3e/96/al-faisaliyah-center.jpg,24.690107,46.68399
10,Saudi Arabia,Riyadh,Mall,Panorama Mall,https://asala.sa/ar/wp-content/uploads/Panorama.jpg,24.692833,46.669464
11,Saudi Arabia,Riyadh,Park,New Diriyah,http://www.eyeofriyadh.com/news_images/2015/04/824889705.jpg,24.751272,46.53521
12,Saudi Arabia,Riyadh,Park,Albujairi square ,https://pbs.twimg.com/media/DNa8cOlX4AEH-mk.jpg,24.736757,46.57506
13,Saudi Arabia,Riyadh,Mall,Kingdom Center Tower,https://www.sayidaty.net/sites/default/files/22/12/2016/goetzgmbh_k1.jpg,24.711831,46.674341
14,Saudi Arabia,Riyadh,Mall,Alnakheel Mall,https://media-cdn.tripadvisor.com/media/photo-s/02/74/47/3b/filename-mines-shopping.jpg,24.768236,46.714913
15,Saudi Arabia,Riyadh,Hotel,Narcissus Hotel And Residence,https://images.amoma.com/Hotels/449683/0-1200x900.jpg,24.69586,46.683644
16,Saudi Arabia,Riyadh,Food,Lusin Restaurent,http://www.eyeofriyadh.com/directory/images/2018/03/9e673e1386bd.png,24.697884,46.683753
17,Saudi Arabia,Riyadh,Food,Hualan Chineese Restaurent ,https://hualan.sa/img/logo.png,24.697611,46.684118
18,Saudi Arabia,Riyadh,Food,White Garden Cafï¿½,http://www.qaym.com/109509.jpg,24.694463,46.68371
19,Saudi Arabia,Riyadh,Museum,King Faisal Center for Research and Islamic Studies,"data:image/jpeg;base64,/9j/4AAQSkZJRgABAQAAAQABAAD/2wCEAAkGBxISEhUQEhAWFRUVFhUXFRUVGBgVFRYVFRUXFhUVFRUYHSggGBolGxUVITEhJSkrLi4uFx8zODMsNygtLisBCgoKDg0OGhAQGi0lHR0tLS0tLS0vLS0tLS0tLS0tLS0tLS0tLS0tLS0tLS0tLS0tLS0tLS0tLS0tLS0tLS0tLf/AABEIAMIBAwMBIgACEQEDEQH/xAAbAAABBQEBAAAAAAAAAAAAAAABAAIDBAUGB//EAEcQAAEDAgMEBQkFAwsFAQAAAAEAAhEDIQQSMQUiQVEyYXGRsQYTQlJygaHB0RQzYrLwI8LhFSRDU2NzgpKzw9IHFoOTojT/xAAZAQEBAQEBAQAAAAAAAAAAAAAAAQIDBAX/xAAiEQEBAQACAwACAgMAAAAAAAAAARECIRIxQRNRYXEDIjL/2gAMAwEAAhEDEQA/AOxTgkiECCMJIhAoRASRQCEYRRhAIShOhKEU2Ek5JBi4muS4tJtf4GFHh8Q5pAB4+KVUb5Pb4qKkN4e7xK4/W3RJQiku7AQlCckgalCMJIGpQnQkgbCEJ0JQgZCCfCBCBqBToQhENQToQIQNIQTkEDUkYRTQ5EJBEBZChOASARVCRhJFFJJFFAEkUkASKKBUGFV4+9R0RvDtHin1OKbQ6Te0eK5OldAEUgiurAJQikqgJIpIGwknJIGwgnQkgbCBCdCCBsIQnpqobCEJxCBCiGoJyBQNhJFJA5EJBELKiEQkEVQkUkUUkkUkCSRSQBAooO0UGA5DDDeb7Q8UX6IYXpt9oeK5T23XQhJIIrswSSSSBJIpIAgnIIAkikgalCKCICCcgqGwhCcgoGppT00qhqCckgITgmhELKnIoBFAQigigKKCSKKKCSBJtTQ9iemVdD2FQYDzZDCHfbcDeFzYC/FF+iibhhVPmiSA/dJGozWlc26s47yrw1M5WudVP4BDf8x19wKzneW44YbvqfRiyNo+R2LpE5afnW8HU7n/ACdKe9YtbCVG9Km9va0jxC9PHjxv1yuu4xflcKdR9M0JyuIkPiY4xlKs4Lysw7zDw+n1kZ294v8ABcXtqm44mrDSd92gJ4qbZ+wcVV6NB8c3DI3vdCt4ccNr02nDmh7SHNNw5pkJKHya2WcNR8258uJzGOiCQBAns1UxrNeSWEESRI0JFjHvXGXtrCSSSVASSSRASSQQJBFBAkEUFQ1AolNKAJJIKI5/Ze08m68uItB1y/wW9h8Q14lrgf1xHBcXRrBwkGykDiCCCQeYse9cePN0x2wKcudwe2XgAPGYc9HfQrYw2OY/ouvyNj3cV0nKVnFtZ20Xbw7PmVcdXaDBcAesrPxtQF0gzYaLPK9NcUOYplWqWtLp0BPclKjxXQd2Fc20mHxZqDOTx4dSsUTL2D8Q+qo7O6A7T4q5SeA9hJgTqewrU9s/G2mVuiew+CcCo8Qd13YfBdaywamiqYmu6mx1RhhzQSDrBGmqtPNln7Ud+xqeyfBc57aqPD+X1cWqU2PHVLCe0i3wWlS/6i0/Sw7h2OB8QF5w96Z5xer8PG/HPa9MH/UKkB9y86npNGt1TxH/AFDPoYcDrc8u7wAFwHnP17kM+ifh4nlXT47yqxFfdc/K0+izdHv4n3ldn5LmcOz/ABeJXleHcvUPJI/zZna7xKzz4yeiNtJBKVzVU2hUIAgxJKoGu71j3lW9pmze0+Czyscr23Ap7Sc8mDGWND49ak+0v9crM2eIL/d81dlZ0ixSxL8w3jqPFa6wqZuO0Lblb4VOQoFKVR2pj/MszRJ4d4+vwW2VwlQYjEsYJc4Dt+iyMTjnukTA/D9VkvwIdmzkuDoseHYVz8/0uNqp5QUgYhx64SWZ5ocklPOrkcvQG9Hs+AKtYfFubF5sLHmZ+ir4cXd7vytT2jT3eBXmaadPHCYIjr4aSrTKgOhBWO8XP65J+ht+tFryMbvn3a5ieF72VmjXGhssGniHAxr2qzTxgOoj4ha0bgKrbUfFF5HBpKq0q/qu+adjK2em5kaiPiP4qmn7ArF9Bjzqc2ntuHyTts3px1t8QlshgbRY0CIm3LeJ4pbUO6O0eIV5VZ6P2ZtzJuvuOXEdnV1LZqbRa5pgG4MG3FcPVV3ZOOP3bvck530Xi2Hmyztsfc1PZKvuKoba+4qeyVqe2a4N5TAUXBNhfQlcjpCAOiRCbCInolepeR7v5q3td4ryqmvT/Il/81HU5/iuP+VqNh+PaCRBtbh9VTxO2mgQ3XmflzKx9q4+CWtuST48foqGFBJk3K8t511nGNSjUz1C865Y/wDpWyqeFideHzVolZlVkbGr5qlYRGV0dznBa0rI2WWipWiOkQYnXO7WeN+C0nP5K1mejyVWoVnCq2QMgMl3Gye9/Mwq1THMHGexQbVXanqt95+gVCvXc/pGerh3LKq7SPotjrN+MaKlVxD3EAuMEA8ry3l71bzTGxVrtbq4W/WgVOvtVrQSATE/BZj2dHsP5Sm1m7jvf+ULGriatth4cRlbY9aSpYhu8UlDElEdL9cP4KRgv3eAUbKzTO8OPNTsPL9QFhoYv+uYTwL/AK6kgL/rmpGj9dyqABf9daLW296ky6+9ENRTMqeys4dfb9U7Lqll+Soe/wAoalOA2nughugggib8xmIViriXVmiQJktAHIOhvwhZuJbZvtN/NPyU1NuvYtb0mdnu2JWubNiZuDo6NAVNhdl5SHF+kGIVLZNAAuMus4QCSR0I09609mVy5ry82Djwmw6hqrOMNq2WqDGYQPY5hJAcLx8pVkPBu2feIUG0Kpa2w99vnqteu0YNfycoMaXOqvsCY3bxw06kqXk/hXRFd1zAu3U8NOXiENo1/PU4Ih46JGhA1DuXNZ+zKLy4O0y3H/JvDgLp+Xn+2em2zyQpH+kfxHo/RRjyWw8kefcC0iZyi504KzRx582WRxsQ6XtM9IjU3Wbi3vdUm4JDS7hdli7s4+9X8vL9r00KfkhSIBFV5B9n6LZ2bs/zDAxlR0Ak9/MKLZWMzNLnANaCBJdvZiQAMvoibALUEG4V8rVkY1XZcknPxPD+Kpu2fUB6YgcpEjrW1VrN3mhxzAG0W48fce5UqNQuZJ1MrFi6dsvDuIEDhB/XuUmKeKdnGDrHH4LPr0s1Mw4thp0Mek36fFR+ai0k343NySpvQfX20aY3KWcHWQO+/aVAds1ard5oZFwQACQSQL9gCD2WPYo8O3cb7LfAJpgOBJuSbcexNLLd3zVnLdNy/u/NQVy3T3/mTHN07B4hWSzTsP1Ub2adh8VBE4dH3/vBNy7p7G/FqsOZoOs+JSZTtA1htuwFBReyYPU3wCS0RhDbd4DwSWoMJrANFcYNx/snxCr1aDmiS0gc4IHeQrFM7j/Z8XBcoMV2NyPyltpiePbC1nuim9wmzZtrqFz20WnzhsdfEH6reqO/ZP8AYPiFqyJKr7N2ganFwI5mVZq7QIq+bDiLNPDUiVj7CYcxtPZflyWn/I+IrV3VKdIlrTTB0Fw1p0KtnZF2pjXAtE9KdRyhTfa3AgWuJ+JHySrbBxLnMIomG6kkc9IVmtsKuCH5WxlA1MzJPAdajSrWxJtuzD+HVKqDb7c72ZbAWdOpGvuU9HY2JBGYsdvOPSIs5pHFvMyoP+1XDMQLmABn3RvHNwnSB3plZu/Eux9qt83UqutlMke4Ad6m2Z5RUWM3g6XOGgmJGsqPZ+wDTY9j6QdmjR/LTXRV6Hk89rINFrnSDeoYIhwIiOsH3LXfxnOTpMFtelUlrHSWDemwAmJk8EyvtOjUpOqCoQxhIdls4xw98hZeH2QWioPs8GoC0ubVuAbwAbDh3Jmz9ivp06jTQkvkXe0tAHRMc7q9rlSYV9J7XVmkgNIzB14BY4k/iO6QmYatRNJhc5v7V7hTpn0YdoXC41GvMcFNRwOSgaX2VsunM7OL7rg2+ti6VnU9kty02vo5smbM5tUNLpNpvoD4KZTKuvr0KDmse2Zc4EiHNjMWl3Npa4RE8CtXEbKaa9KgHEsdSqPDtSIcy4I7R3rncTsh9V8vyhuZxADhIDiTlMa3K3MG6tSfTOQPbSa9jd4N3HREDh0WpP5Jusvb/maRDG1nOe10PEHLIi/KRPeui8lcWDhi9zuiXZp4AfKFz23tm/aCCygKZmTDxexzWFpmD3q95P0DSp1KVSkHtqRbMHCPSBn3Kz2SU6l5V0Xl0tc0Fpgm9wTaB1EI4PatHzTnZ+h0ud7iAqLPJ1oLj5gQdB5w26X8O5NreTUtIDC1xIuKkiwvYjiZKf7J2v4PadOo17Ab5MwnvhRYjajRUNKLgEzNrXVKjsGqx5e1o0hs1LzYOLoHEZraXT8RsCo+o6oabYcDbzhG8bTpy4KZWuxpbVztLmgWMXlQ4fHuFJjt0WHcAOtDBeTuIpgtAYcx1LzaJ4ZetLE+TGKdTaxpY0t5vJB04ZbGyZTvCobRe9pdMXI05Ac1Wwu0nPqZc5iHcANGmIhaeA8mcQ2mWuyEzwceUaloVbAeS2KpvzGmI3rgg6tIHirP5TtJhcU0Aio+5O7J5aqetVY9pcwyMw8P4FQ19jV2AvdSEDidRppZGlTLaZmnlu2w00d1J8JusTH4/K/IBPMzA/ir3k+8Gs08w7wP0XPbTqxVcCRGaYkTpyWl5PPIr0oMDM6eUZSnLjJx0luu9yoporN9Yd6KDEr1g9uQsbFr3m3WoxRbBGUXsel280ApAsNGDZ9L+rb72h3jKt02AaADsAHgoy8DUgdqb9uYPSnsRV4BNwxF4N5vfRUH7T5N7yreCdInidUguAqfD1C27TChapKOios+fDrObB5geI+iLqPEXHMfPkoAnscQZBhWVDSEC1WBWB6TfeLH3jQouozdpzePctSxMV4T/PADLlEm88REfVAg8k1wuFUB7ZBWZUiTDWxwlvfPvWsGqmaSlMVmkdItEezeU9lSZ4+4jj2qTEM3D2FOoM3QIUxelXOB6I4cCrODImwjs5IuoqWhTgqmLBrAjLlEi+biZm3wQAQAM/rrTgSTELSEAnBqkbTOroA5n5IOxAHRE9Z+n1Wdi4cxtpNhzNkDiAOiJ6zp3cf1ZV6jy65MpBTyXCr1C7Uz+uA4KKropCmVjZQUsS8ZTJ705osmYg2IWEdt1GWIa6O0H4KWK3qjJUIpAHMGiRoYE96ym+UjfSpuHYQfGFK3b9A+kR2tPyTBrNqu5oKg3a1H+tb3pIKDsUeEKCpWefSPgtD+RKvJn/sZ9U12xK3qt/8AZT/5KZWdZgKlYjiMK6mcrwAe0H4gwruD2U91zuN5u19zdT4daYagpC638Bh3Fot3kDukpYXBU2XAzH1nX7hoPj2q2Bf4rc4mnNwzuXxH1UlHDu5eCYQiCr4J5JTScLkWUP2hnrt7wi8eI8VTaf2lYx6LOXquUsxdXPPN9ZveEWVR6w7wo2NGZlh0T+6mZRl0H3n+6p0q+3Eg9KD1yJ7+KJoB12Geo2KpVGialh0R4FOawZm2HRd4sV2CyaRGohQuaJ/iFDXJLGN51gBp/Wm0q1V2e+Km4LA8RbdK10ivig3I4cYPEJYbLkbJAMaEhWMTsyoTlDGgllSLjWWgH4qv9jqU6GYtbLCZ4jdLp6+CbEPcWD0m94R84z1m94XNbP8AKDz9Q0RSjO2oQbCMlNxP5CunrMNOplIAOQngeIV5TCdiypTmTUYP8QJQfjqY6Lm9pInuWfWFqNv6UT3OU9Roipb0h+Vqxa0c/FtNzUB94Q+1U/Xb3hStaM7vZb4uUVHo0vZH5AmGl9rp+uEjjKfrj4oej/5f95KuN2t2fuJiA7Gs0zXjSD9FHVxjI1N9N130Qqf/AKQf7F3+o1GkN2l7P7qfRj1dqD1Y7SFhYgyZlo/xfwUvl4Iosi2/X07SVwzHkllzdruPt/RdPDYnk6io0euz/Mfoq7mD+sp95/4rm6RP7K/p/Nn1SoaDqqD9fBX8cTzdAQwWNZnx+iS57aNqr+0pK+B5vZYUbipCDy+I+qDiND8j+tFnYyOCpCM0DNpPEdnL3XVtsyo8LorGRZaNBungXg9qLQgOl7lA8snmgaXWU8JOCogfUy6kmD1SqzTvVbm4Av7BUmIaTYXlwEcTLgLKX7M8moSwzHcCPoqHtbvN9l3i1UMJXc6pUYdGvECObyZW43BPzN3PRdxHNqj2fs2S8m37UWHY0mT71lpWeen2R/8AKt0sC4ua58MblJl3LMwe7UKepVZSzgAEmxvBG7rfXiquJxLnuaSdGkW3bSOTk8TTKz6bQzI0OIq3LoMw8kEb1lZq7UcRU3WXbGv4YtvKk42bfR06nmfxpxeTm3jppJ5e2tf0i4dsuzB0Ms1w4cS38XUo/wCVHFoBawjOTcji4mCM2l1BnvOY6Hier8SAJMXPStc6k+0p2dM3BYKjTfVeygwObmyHNJaH0ocBNS85nc9fcturtAueMzWGxHo82n1+pZ1UZalRjjlcQww50EyCBYm+i0XbPrZgMjtDx6wnZ0rPoMeKQpmD53omOTzIImyWIouaKgcI3v3W8Uq+Ge0NzNIGa2ut+pSUsU8NcCMwPAg2sL2Z1KeK6a3pn2R4lQ4Yz5scm/urWbh6dRxyksMDUECSTwPyUGG2c8FhgRFr/hlMsFR1Ld/8n+6hXpnLV9n91aJwTsvD7wcf7TsQr4J0VOjp16ZexBkVWftwZ/onfnajSZu0+z5K7iNnvNUAQCaZjXTMP4KrjCaVNrnCIHuPYknY4vy9+6b7db8riuGoSXUutrvzPXZ+UeJ+0U25ATBqHT1qTo+K5ijhXB9CQR0gZ9t31Xbc6c2XQFqX94f9tFtgeqq3976KejQIZTP9qfCn9EatKBU6qzf91XTA2pgqpqvLaTyCbENcRpzASWvtXyhrUarqTWsIaGxIdN2g8D1oqycsHpBVeod53YPmppURF3dg+a4qu4Xoj3/JWVBhBuj3/JWCsqCDRdEBOYLoHAIFFIqohpDfZ/eM/wBQLcA3q/Y38iw2vgh3Ko09z1ofbRNW2oHH8MLXxWjiMQxjgXEDddANpu2L+4rIGNJztzNDTUmJb6reMjkrzdpS8Q2bEQL6lvV1JYbEOE/s+lUzXIB0Ai/YorNNUQ7S/WOXtourX9HQ8R1fjWvUxJioCyLcSPVSdizmH7OLH0hGo4p0dsY1NNNeY6/xq5hMI+oHOAAaAb6zbQQ5Tvxdm7mj56QPE2WfitvmmXMc5oJ0AMSDYQDrqkiVp43Y1VrSaQ844NJDQCJu0H0tYPwXM12VBmqPmWw5tEEh8zExqII4CbcNVF/3xiYzvG4CBukyGukkzxO6FbftB7i12YnUtM+tey1mek9smrtjHVawcaZaXBgqBtIGGBz4kuaS0RN58EWbR2s4SBWzSIlkHLebEaSGqw7Gu8+8l3SpsneF4c/r60/F7ayNL3PBgGweCSToBB4wrtMX9nvxz6uSuw+YcdzMGiHFp3QddC7XkrOKwpplzd0kXs1kgECJAYY7bTBXMUtv15c54Hm2NzNDRvSMtp/xOWzsbaec1H02k5miXuzAQ0uAAka6mOvsUqxba12azYIiCGXHXairuExr25MwcQDrleTGWIG4Aido1M05WaDiTx6goBtN4yQGW0nN6pCyrXZVDmTBE1BqIP3g4FPrD7z2Pk5Yb9p1IN2DeB9LXMDz5plXatTe32XaJ3e38S0jXqffs/unfmagWAtpggRex9lywX7Uf5wO84JDYBAHE6XPUov5Ufu/tdDybaxUGpX2fSyub5tgHnGjdAFszRw7Sud2z5OsBLxcMIibOEx3qzV2g8z+1PSBjd5i+n6hVqtcEkklx4ZiXcOCXBx2P2E5gAAmHE21iB9FmYvC/e2/pAf9T6r0KvXDjccOtZGM2ex45E3JjiOfPUqTV6cht7DTXcY4M/02pLfxOzC92eRcN58GgcupJdZymHTrGKJ+rvd80klzZaOE6IUySSw0TPqnU9UkkQ9ya5JJUQ8P8R/MVSoOManQfNJJRYe2s71j3lP8+71j3lJJdOIe2s71jfW5T21nT0j3lBJdEMxNV0DePSHE81HVeTMkntSSSSIaXE6mbcUx7RGiKStkENRQPeeZQSSSCvUruvvGzTFz1KfYtVziczibcTPikkpz/wCarYDRyTHtHIJJLzb00RYOQ7kMo5JJK/VQloz6cPmpQ0ckklKJRSb6o7gntpN9UdwSSWUqejRbfdHcFbFBl9xunIJJJEqpsWk00WEtHHgPWKSSStYf/9k=",24.69176,46.68462
20,Saudi Arabia,Riyadh,Food,Saudi Corner ,https://encrypted-tbn0.gstatic.com/images?q=tbn:ANd9GcTKOuLUyuF5xWlyfs1riyoILEV3s2owrcrXJ_nREpRjJLqQewW0,24.691545,46.680506
21,Saudi Arabia,Riyadh,Food,Najd Village ,"data:image/jpeg;base64,/9j/4AAQSkZJRgABAQAAAQABAAD/2wCEAAkGBxMTEhUTExMWFhUXGRgaGBgYGBoeGhgaGBoYGBcaGhgaHSggGBolHRcXITEiJSorLi4uGB8zODMtNygtLisBCgoKDg0OGxAQGy0lICUtLTUwLy0rNi0tLS0tLS0tLS0tLS0tLS0tLS0tLS0tLS0tLS0tLS0tLS0tLS0tLS0tLf/AABEIAMIBAwMBIgACEQEDEQH/xAAbAAACAgMBAAAAAAAAAAAAAAAEBQMGAAECB//EAEEQAAECBAQDBQYEAwcFAQEAAAECEQADBCEFEjFBUWFxBhMigZEyobHB0fAjQlLhFHLxFRYzYoKSsgdDU2PCRCT/xAAZAQADAQEBAAAAAAAAAAAAAAABAgMEAAX/xAAzEQACAgEDAgQEBAUFAAAAAAAAAQIRAxIhMUFRBBMycSJhkaEUUoHhM0KxwdEFFSPw8f/aAAwDAQACEQMRAD8AoE+WQASGfTjGS0v+0XrCuxCpqc6tbXU5BeLRSdk5CAxL32sR5p1jE2q3PU8zTJuzyiXhUw3YgcTaGEnsrNUNC+XMA2o5E2PTWPW/4eQP+2kkgAu12ZnG8TmaAGDNs1uWsLqS4Olnt2keXU3YeZYFKlEh9coD7E6vDyi7CBAdRQ5FgPE3meR4bRdmjlR8Wv39tCuYnmy2oWS+zslLKc5gB0+/SNHBJAUFEKISSbq1JG51O8MVzep4/f3rHJmDg3n5wrkKnIAGFUzN3aWOvWI/7GkX/CGjPckjg/CGBO1vl74zKfPqPp92hbDYnm4HKVfugSzbacNbQEvsrKJtLQOah7raRYlE6vvGDy8r/e0dbG1Mrv8AdGSA4QnMHFtCN3HBvO0Bq7FoSvwpCpbXBN3fjyvFuSPv15RypuLcvsc47UwWyszexciwAWm92VYftAc3sQA+Wcvo4vFwWscn6ftEQmHWw8g+x4R2pjqcu5Tp/ZCbcieokhjmD2bT3Qsndj5ydFIVr+TTePQVq3s8cLmXuR6wdcjlJnm0zspNf/DlK6OmAJvZiaDeQpv8qkmPVlJJ+VxEJA4N5ffKD5kgpni9XheUsoKT/MlozD6YJmoVcgKB52vHsK5KVDxANz++sIe0aZaUDKlIJOoAsAD+0M8zaoEcUXJbBFFWpqgZBUo94CksCFAEXYkMDDSn7E0iAAKZ2/NMmrJPUAgegiudh6j/APslOohFwSdA4IDmPYTSpO/vhfB4Y44vT1YvjIuM6fY87xDsdTK0p0I45FK+ZMJp3/TyQsFpq5Z20Ij1GpoU7Ewmq6Ei4jRJ0Z4pcHjPaXsbPpBnChNl/qTqOoisqnco9uxGckJUlbZWu+keOVssZ1FI8Llm4bQ0J2dLDtsCGYHeNqmDaOgBtHJliHtCeU6OTMEHYQkLnITs7nyvAapVna0H9nSBPRbj8I6XDBGNNJnoaYyNJMZGE9A9OAOjMOEcHL1++EaCyd/28o0ep+vug2ZqO1EagARwRv8AARi5oSnMzgbAEn0GsQmtTlzv4eP2HEA4n87esRPze/30gedUDIJgUkJ1ObdPxBgdRKnzpTld0lKyC2ofd4DHir3CptUlIL2HHhxvwjFVI8Nwx0Ork6MYClzgV5ipSTZ02Kbc9j6RBW1ATMSpbKSfZSXdKhuHF7QLQyg3wM5lVlzFWYJDeLUF92HDd+EDzJx8RTlWGBGVVyN9bEc43KkKW68xRts3EEg6GOJVCpiotMIfKQlrcHdjBW51UdTKjKQrN4SGYpIU72/o20Qzal0kqBQp7BBBOoAfWx+cbz5QDkzLLZstvP73HGNJBGZIOYqcgKTYDg+jbtAsOnqyOaV+O3eCxSEkpU3B9CbO7xspfM/iSoDwkEEf6genSCUS2IUxCmYh/D5A846zm7g24N9LftCuVBBJKJjpUfCAC6NSWsHVvYjz3iMoIIVLHtKzLSsmwH6dgbaQSue3H75tGxNGoJ8jY+oga0HQCmcp3AUAWzJUWygalNtTbeIFV7lWXMq4DJGmxu9/lBSkknh9t9+URlt8rjleF1jaThU1RT4CCoEZkqew3YgaxCmozIzpBN7g2IuxLH1icpSNLHUkFvdZ/wBohnyg6piVELKWGreY0N3v0g6jqoFr6xIRnd08Wfg+2kUztLiBK05C2Ubc4eYkiYQA4Av7I/doqtfSrUtTJJ6a+kGDTZVRrdneHYhMMxAUokOLRdqTFp0v/DmqA6uPQx55SKyrBOx0PLaLRS1yTofLeGlaewuRItUvtLU7qSrqkfKI6vtTPZmQP9JPxMKkVSWdw/yiCZct9tFFNmdwRDUrXPJ7wunfYe6EWIdnku8tRHXT1i3SZYSGBERTZT3GnppC62nsNpT5PPavDZidUuOIgEgPqfMRea59Aeu0JqmgB1aKxzdznj6or5tyjuVUlK0r3BEFzsPbT3wHNkkG4b4RaMosnJSXQ9Mp5aVpSoGxAMZFMoMbmS5aUB2S/wATGRLQHWe6TJigwCXfUuGHUPaAkhSz4hMQQWSUnUPqS7eREdyXylysj/2BKR5ZRAVGDLTlU4SNPEVPyS6QXiFnJBhmK70qCloYBLEJKVAXzAA2POAu0NepKAoEG4dLOCN76CJJE5CkkqdIGiQznq+kLqrtIhBIyykJH6iFLfbkIDbY6iupIa8d24RkBPskfACzQ1psoR3swqy/pCW+d4qtL2kpiVGaCVa5luQfIaQDiPamXMV+GJquAFgOA8UDTJjvTwXSXjAJ/ClgJO7F/wDcYWViJh8RV3bE5lKZVuCXNyYrUhWIVKmSruUjc/vrDOWpNOUpnrmT52oSpTpGwOUWHWOce7OTS9KLFgiQiU6lKKS58Y3N9OPKJf7YLMkZUiwza9W0EVyuk1E5jmI4ISLJHLiY7mKmU8plL7yar/DQbkcTygar2R2hcsZ1NR3SVEJzrs7qISnNo/D9xHeG4iFC9lDUcIS4NPmpUpU27pJVYkMLkc3icrSFqCBlANgzOldx0vCN7bDad9ywkE6FvP7+xHBF3JHrC9E1SyhKMuY6g8Ny4FmhouWJaX1PE7fQRnzeJjjajVyfQV0kDzJKlBk3B4XHrpEaKJSdWA6i0LZmKlEwmUoqBZySSl92EV2vxaYZxzLDnha4+EDVN23sx8XxbXRZ/wCPSxZabFtdI4nTCbh1cwQWhKnJMDqDK/UNfPjA1bTzZYJk5ygAvkLm/I6e+FjkcnSe/wAwzjKHKv2HMjF5ajlJD6BxY+kEqVZntyLx5zKqFS1AqchXsvbq8PsJnqUFLVNS6WGXS2oOrGNMo6VbZPHk1bMa1tI5sXtrFOon79Rctez84tKMVeXMJUHALB7kNaz6xWMMkLCmKFlStBlLnmAdRzh4QdSoq2mrfQLkSQupU4cADzgyZgqD7Kiknf8AaOsHwyp7xasmQK1VMGjcEu5h5Iw5iQqcVP8AlSEpb42iscU9tyUssb2E0ugWAfCo30DORxuYKFPlllQ1sWBHQh9GhiqiA0mTR/r+ogObRqAP4yiNwoJV8odwa6k7voczprIBDHRw9tdQTa0anzUtb1GnDSF9fNmoQxSmYnhlIbmQCYHNfmSQtISbMFOEnoqE0uh7RMqW5+/hHBR5xuWsFJLizsx9zx3LmhSQbeunJxaEHFtVStcDygNdOCCCIsBU4sxiGZTD71gqQStHD08PjGQ8VRc/dGop5j7k/LiehVc9ISpJlqGc6KU4PQBRAhXi9TOSpHdpBSLeIFr66bwHiGdLElRKb3Ls3DSGdDWGanwrSnkUuCerxNvc5RFxnd4cq5q1k/lFh7gAfWNFJQSmXTh+Nhr5FzA2IS5yJgKgAHOXRuPtDTzhHimKVJsVlAOgRb36mHh8fAMlY+S001TNUCMiM24CE/Nb+6JE1M8WTTJCxvp7gC5iuYRh+ITRnTOUlOxWdeYFyesM/wC7lQv26pazvlWbeUCS08sMXfQgrTWTj+IvINgkN7wH98MaDDggAnM+5JLmF392yD+JUzE9VsfeY7m4VSM38Wc3Ard/RT+UI/i6/YdOun3H06vTIS9s5DsToOJ3PIQjOITFl2BWd1C/VhoOUT0WBJA7zKpZ2dkjqQXIEFSRKCSVqlylnV/EfU6+UJ0pDbXbN4dJnZJhUSbZUsGuqzJ3giUAlSypT5cuYkfpu3O8TUeKSWyoK1q4kW8k7ekQV1IpYAd3/KgFVjvbXnHPjcVz3Jux+JIqptQPZUwyfyuX83aIO0XfoWlIISlIcnra/KEFJ2br5U4TJEpQZyFEgAh2ILnfgbxbcRp59RKHepEteikhYyqHWJZpYIS1tq2u5ncZOVoos2YolaQsDc6jThzjVPMRkVMKCpQcF/8Al5Q2m9jFeFaT3h1y5kgHzMCVeEVMqWr8NQS7kDKpnsfZcgRyy45bRkPBU7kgWnqylILvr05NDKnxsFBQAfFqXbkxgVaZaU5iHfYaCI6mpSChEsS0kPmYjxA6ecBQTepLceUpL4ZvYX4lThTtbUh9LcG5wJUFSUAOwWGOnzhzVHwmV3ftkFChyuU9IXYqgJLqYkNlQNuvCL45XSIZd5Uhvh9WlEpayr8QAZHD7akHeHmFTUU8oTZqiudMDkm6iNgOAjzkGYok3ffpwh9Iq1LFw6kgBtw3ARocnjxuuSsManNWO8S7Srbwoy8ze3RoRUWJqUpRzEKJur9mjU6atSXJYDb6wNUSjlC0tz4xmU21TZreJR3QcvFZguhRbd2eOJWKHOkqKyN7/YgKmmCYFJ0VtGGflUy9hoNHOjwy7CNJ7lgGISl6LY8FD5i0RKmgguQRw4wqACtMpjpE1ABZWYjbgfOA2+TtMeDuclUsKKPEgguk7dOXKC6VTSrZTawFk9HMDmcQApw2hEcYLLSoqSogoCiw47+kNruDb6E3FRlQwp5JyswsNE6crxAueRqACNQfkd4krVqzeA5RZthblEFDTqUslRKufCJRlJ7ss8aSuyVFQoh8h9BGQaaQG+Y+pjIeyew7r5BI06DjCCaFoV4dRcjh6Rb6qmUGNnPSwgKppEqDb7l/nBZOLE1P2iJ8JPqze+OqgSpjukF/0kerNEGJYNYkM2xfeK4ummJWAopvoN+Tbw8YXumCbVUy+0OKJlpSkoCstgSk2hn/AGxKUGKU3/ygfOPNhS1CdFLS/An4HSJkU9W9pijxfaC4PuLZc5tHSKUVGXLJ4rL/ABjcmrppX5pSW/SlNuhIimGhqFOSsgDctB+DdjplQq6/CLkk7fe0K0krbO1DbEu0klSgiShcxZsySb+Q1grDuyk5fjmrTTpP5EgFfmdB74seA4JJpEkSkJK/zTCAVDp+kQzVJXqEvw8Qv848rL42c3Xhot/NoO/UU0GB08gvLSSr9aySo/IeUd/2mi4BIbYA/KNVs6YgMUFVzdJb1B2iWjs5yJCm0tm8zGeHg55X/wAsnZTZKyWlUqakKDgXYLd248uMArwzwgGYHF1F9SdN7RPSmflUpWUDZIY2+23MUPF8WUmaUqcgmzgCx0FtWjfHwuKEKUbvuGCd8l2kKloBC0+YO+0KcUxOTLSppjTL5Qx8nbQxWZWITJbkl0u7DhHNdViaczDSxaM/kpztx2NMIxTuRYMIxEzQ3eDP+gm56A6xutwyTMWO9koKjooMCT1Fj5wq7O4XLmLKlqMsgO1spe0S4zVnOEjNkSwBA3G77wzwJO4Nr9QyjCUqX3XBHiOBzC4lzy3/AIyyT6ixin1tJMlKIIKTu+v9I9ErqrvGKASQPESL2gAz5c9GWYnMnY/mTzBiuPxOXHtLeJB4E91yULvVG735QXLmFRDHKptRv1g/FMEMkgg5kH2VceTbGFZU3Ij4xujNZFcSbjS3DUVZBaYGG6hv1iWcfD+GoEHhf+kC/wAUtQukDm0SUdCiYWJZXEWhZQS3kq9t0Ms/Rb++xJTITLTs51tAa0JUo78+EMJ+DKSLzSBwMcU2GqVpMSfJjCxlD1av6/4D5qveP9AZgkWG0cUqEpBLMYbf2M/tL8gPrDug7JpUAVA9SB8LD4w8WpKk2/b96FllSd19SjzELmaewPIesMqaUDKKEgpmJ8V9+JSR8IvNX2bkzAEqK7fpUkPwcZCIHPZeShJ7oqStmCioKbyyiNOm41wQU6lqKrQ1JWPE1vNRbUwwknLe7GOKvs3NQsTEICzuElgrygU4kZZaZLUjr9Yzyg+iNOpPgcCYmMhYnEZR/MPWMhal2FPS58v8oAJOsKcQSJbAIWp9QhJPrw9YZmYQlybn7AEBT6eep5YmJQnX2SpfU5rHygppvcjTorn9moUVFUjIfy947F/M36QXKwhWQGYhBA9hIBa2hZTtDORQS6hYSqUrMhiVlKkE8ClzpyhsJIck6Cw+3MPKQIvaitroV2AAzK930jYw8+yGAFydX/aHtOB41lOpZO9uOlo4rimWjVn1+esJY/UTGkdibuWQkbnz2EWShRLk5JZIBWWKuJ+7CEnZysVPmLmE+CWMqBfU6nhp8YK7QywpKQSQ5YEbHYx5Pjsjlmhi6cv5hVcsdV6il0jwjgN+cBoVl/N0+9oEpa2pQkJmIz7eIe8GOZ+Jkf8A5hwcuwPrvFmnfFfoNGOwxxKoX/DKUnUMBq5fYHeKGJq0rc5kr3BsR9RBWM9pZpmIS7AGyWZIblx6wLV5Vq7xaXXzLfAw038KuyuONDKRjS75iSg2ZLO4/mDQsxxKZ7t4eDtbq3yiGdWISybF7D+sQd8BqeohVKfI+iK3FqETUnxqRl0ur6Xg1FLZ+OjP8C0FS6lH6bPc/PpEyalKWCQGNnLaw08kuwyUQehQoEKBsDwbyhxiOFkoTMQtQIupIDkHUMzWibBsHUzqdtQ/PSDpNXLlj8VYBuMoJO9mGphI6nO6OcvylZw/+JlTM0zQ3N3JG9hrDOrwzIDMQc6VOT4WIc2BA38o6qZ8os2cMpwpm+F4stIZcxDghY5F41adVoXLqjTaKvKyrR3ag4U/kfykRWK/By6kj2g/ui94xICSC3HTjtFexeWVLSXVdILDcgs53jPhvFlcBMj1LUin/iy7FJIGx2jg1ySWPhPOzecW6ekuHGusI8Zo0fpF9OPnHpQzK90Zp474AVVSd1qP+p4gVVEHwqPV4g/s5xYRr+zm1i9wI+VKz0TsBSd8DMUorYsHuBHoUrD+Puig/wDSysTKKpSyAFHwnnw849KmTuEPDSlsLPVdAowh/wBzAU/DBxhiueYgUY5yOSYpmYeR7KoBq6cG02WCOj/1iwERyuWDYwjZRMpEzsZTKJUHAOwUWHQRkWWZh1y2kZCjaiOuQn/uLMtI0VmyueAN38rwFKw1ZZciSSrabNJCW4jvCFK8kkRZafDpcs5kpzL/AFrOZXkTZPk0ZU1CE+3MALPc39BeG8qEFuyKnOT2FdJSVSUkTJ0hJO6ULWf+SB6RHNpZjMaknpJSPismIqjtFKG5VYeyki/UnTyhTUdp0ZnEok8Xiby4eiKLBke7v6jOYiaAB36S2gVJb3pmfKFWOLnrFwggD8ij/wAVB/jEa+0ad0HyMaRiktYscp4GFc8UuhVYZx3/AHCOwy2E1J18J+Lw/qFqnEy0oSQCLlttTeKjULL5gSlY0WPgeIhrh1cudLJlhXejwzEp1HBQ5GPOy+FrP5y3XXugp9Jc/Ys9RPS2RS8jMNRc7M50eK7i1LMKsqO8UlnKnZvLQ9IkwujSypkyVmnAlisKKmazZvlCFVPVd9l7xTDxZc3hG+m+saZVJJsaNRdCet7oeBZWogkhTtqXPH3wbTd3OSchUctiCXPWO6nBpk2YWQc2t7ddbGIpfZ+dLmFSXS1zcXH0iUoao2rLukyGow9G9v8AVf3xyMMQsXKxwIP0DQ3qEqSQFJKn3SHEBVkxSfDLSc5IZLOeZaIxeV7Iao0Kq2QuUoKAL8SfR4ZS0pmEHQ6lmZ9YhViK7pUhC9iLjy6xxIqZCFAh2OqXIY9dIrUmqa3+QqW5ba7Fe5QklySNbAaWtvFbmTmW6nK1ByRq52g3FaJM2VLKC5sRdz0eFXeJV41O6Q2j6Q6jSo3eDiqbOpcxeZydLgEwxw3EVIXmSGO6Roob/wBYWpkKUxAJJ0DekdSpRHizaWINjbUQr2Nk4xkqZdsQqkLlBQF1C3HnCieSVhA1CQDyzXPmzesA4bU+FUwvkSWSP1KOiR5wTRS1IBXNU6lkqawZ/veCt5637Hh5YaZeWjuoWrvEhg2zC5bjf3NC7EwApy0Mc2q/QQrrEFQOY32+kUYiE82dYsNfvSBpitLQbOp1CxgbL4mbTjDJjaQvDl24c4vOCdqWAROctov6j5x59ImsrrDZMyHU2iOSCbPU5U9KxmSoKB3Bjao8rk18yWt5ayk8jr1EP6TtbNT7aUr5ix+kXjK9iElpLkUxpoSJ7USmBIUnqPo8RzO1coaJW+1g3vIhmqAmh9GRTpnapT+x7x9IyFGJ8X7WFXhlhSRxiumcpRKidd94EM2JUz4xTdu3ybccKVE6ZRUWiRVAP1GO5LbGO1KhN2O/kAzaEbGF9XRbZhDlULq4vb1ho7M7diylq1oOUl0/Dpwiwdn63LUOmYEFaWc6PsDFaqFNHM1wHY30/aNMY6kzPmVJR6nrVDPWtR7wlJGrks3nCHtOlcqbnB6cvfCPs/20mSWTNBmJtf8AMB/9RY6ubKrbpUlQbQWUOo1jPJOCqffkn6ntsQUnaZCUqClFRcNbZrvo130jmq7WyzoknhcD1IdxCyX2bSZmRl73uza25w3peycm7pPmVfCGTvqCSyfIR1GMKUp8wTZwx484FSoTCxWRvmzaExZR2UlIlnOCVEliFEtwtpA2IdnJdzKSFBtHIvy4wrpAUcrd6hJIp1KXkTl1IC1C5bg+pgyqwnuyAoBT3zZQz8iLQfQYLMKAs5QxIZJJUDo1hb1gjF8KnZUmSPZsQWvzdWvGBTao2RlT5B6TD5rjKCEMP5W9beUbndnTneUof5v0jlD+np5hlJJNw2YOPVxaK8cRnrnqTTpKmOXwB7DirT1ikcTeyB+JeN3dAlVSrQDmQOeUlvSN0tIkAKmJYH2QPaWTslOp66RYUYHUzQO/moljXKhIWrzJ8IPR4IX2ZkFWZRnLVxVMLn/aAw5CGXhHe72On/qM5Kor9RVTUh9pbJyjwS2dMvQuX1UdzESQpj3qkqBNmSz+RJtBs7stT/8AsH+s/OAZvZcC6J85J2uCPgIr5Kqr+xkWSXNfckVTAOrWxF1EsPMsPSF+XMc2w0ESTcLq0+zPTMHBYI94eIV1c2X/AI8lQH6keJPmxtE5YX03KLKuqokXKDOq58oBXh1swDvsf2hhLniYMySCAddz9I6F9Qw20jPunRdNVaKzVUykn5fZiSVUtZRbnxh6uUFqvoOPyhHieHomv3arpOh3i0Gm6Ys+LQJOmkK5QdR1otm16QulYbOPsocaB/qA0Nqbs9Ubob/UPnFnKMVuzNJXsT/xiSbXjqUkqNhE1Lg0xJ8SLdU/IwSKZSSohJD8j8YTzYvhhUKB+56ffnGROiU4fMPX94yBbGpFfIJ0MSSyY5ShokCWibNiCaIkH4wYJ4MAAsGHnG5UwgF4XSCTJqmeRtC2cs7xMtZL6n99OkMcL7NzJpzr8CBe+p8vrFoYZSISzxgu7FODYMupmsLAXJaw6w5xrDpbhKfZQMoPTU+ZixYYWp5mRDKQrKrmD7KrbN8IUzaYi6WILkiLzSiqRmTcnqZUajCFC6b8tD5DeATLWgv4knjp74tqmJZQKS/lcbnQCNzqRxc5k2HI/t0hNdD6bQlo+0tXLIOcry/qv9CfWHlN27maLlIL8yP+TvARw6UrVJGoccRwEcjCA9iFAC9/nCScJco7Q+jH0ztkFhu5UP5Sk/8A1G09rZQv3U7pZoQTMIQPaChubWvw3gefSS0j29NefAdYl5cG73GqXcsK+2qEuESFAWsVAANANV24WrRICtrv8D8oUYJgyZ6lrmKKJMoZphHtHglP+YwbQUUqpqES5EgSkP8AqKlkbqUokh2ewtGiOGDf7ksknBcliwGiqK4d5ULySBolHh7ziOY4mLrTyES0BCEhCRsLf1MblhEtKUJAASAAOAEBzprl4tKcYbREhBvdk8yaIH73iAPnEEyaOMDqmOQyozSys0LGiebfeBcz/vEveaCIJyvKJyyMdRNTE8bQNNSRBuYcREM2SR7MFZGdRXK/CkklUs92viLA9RA8mvUT3UwBCx6KA4Q4mq1sXGsA19EJqW0UPZPA/SC5KWzA4OO8Tju5s05ZYCW1URZI6ceUO6DB5Ms5ikLVupQF2/y6Qq7N15YyVAJWh3H6v83Mwzq1rZgesYJLNPN5UdkJLKlHUWY11OumIzIlqGiTqfQRUpswA+Ff098KlzWNyY2hT/vHuvwcZpajzPxDT2GwxAD2ynqlQPueNHEUn2Q/nA0umAclSFW2L3PlC1SwDEX/AKdhb2RVeKmNzUq/SIyFqajnGol/t0PmP+JkK5kpaSzpVEv8JOOiAfOOzQTE2sW4lveYa4ThFUr2QqWnishjzSLlQ6CLqF8f0KvI48sXS8JnnZI6mJ5GCHOlMyYzlrWHrFwpuzs0DxzXPTKPqfQRIrs6g+3M05H5mD5Mk7VfQDyKXLYul0iJHgCC6fMA8XNt9oZoop00bITzsPTVUEimKUgCckgXAWkHpA1aJ6/zgjfLqeV9IooVu7YvyRPNnypMky0XJ9o6kmEqJQXcAj0cAC3QwDiKVyboQVlStDoNhmOpgjDlqKWmAJWOGnMudLRnyNvkrCkcVEskgrAZht9uYGEmWokpJRfltryHQXg5VYFLyS1CZzF0jqo6xgnIDAoIJfTfi+wEQlsWSoGRQlIJACgONtdzvECqUuLENys/3xhiQGGRZ04M99gdesbWhWVwpwDZi45v+pUTbGQqnSllJImA2vcs/XhyiuTaFSndYLXP0PCLTidQEpYoa+3HiecVWsXmNgwd226mDFjJD7E5fcUEhKEuFqJmFtS3hzQZ/wBOJQzzZhAdKQBycl/gIrRr5vd5M3h4Hlo8P/8Ap7PAM1G5CTfkT9Y048jpszZoVKPuXOfOvFd7Q4umSggLYm4AhzOOvyjy3tRXKVMKVIy5Sdd+cSpydFY1FGLx6YVFWa5+9IZ4TSTJikrE1n14xUwpzeHdAtabpPVrwckFFbFcc3I9DlggXLxBOrU6Zw/WF1JX55fiO0ViVQq7/Xw63O3WIKnsNXcsxxmXmbMAfveJpOOS3bNfSKhVyQhalWKXYb/ZgWdTqJGQu40BBI/2n94aOO+Gc6PRJ6MwcQpmqKFcj7ozspTTkS8swdH1ifGZTawslTBF2KsXPdrl1CdiyuYMOarEEZbGEterNTrfYfAiAadE9KEzMuaWQPEC+X+ZtPONuCmtXUweJjWSu5aMPwxU9jJAUvViAdORsYW14moUROzBQLMbactoP7LYitM1IQSHOx08+EE9vs8udmWUqz3dN0kHd+Ma45XtqM0/Dr+UAo5qQnrC6qygnaI5dbw0hbjClKuLgbRd8aluQSt6ZbGTMVSCwv6xkPsLlye6R/h6bi77631jIxvO+xs/Dw7noGH4JLl3IzK4kX8hon3nnDmXREl/ZB14k8SYJppAF9+MTlcXSSJttsGRh6d79YkNOgbCMVMjjNHWGiKdSIP5RCypwlOqXHSHEaIgNjIqtXJUBfxJ47iEWK08pUtQmKUlD5ipNyW2aLxWyN4p+MU48cvZQLcniM0Wg7QNhaBNl/hy2QAWUojxkcQNrQHhtMsL72oKhMJsksAQdGHCGmHUKJSBKQtRa4J4m5Yf1gSdhS01Jm+FacoPjL5TyfcfOM0mrdFoK1T5BpuLLXN7qVKS6XzFRs26QBtzg2pqpaEFSizBn58EDcxBjJUiWpctKc9iVgeIjiOQgWqpErlILTCUOpJPtFRuxB0EScYumPHbl7/2I1rdAJOVwSytRzVFcRUpVZIdt+JhpJefKOZSQVKsOAFr8IULmpSsykB2HtAMH4wFBbrqOpcM5MwPlcaaftygvA8R/h6hK3dJsrmDY+mvlCmnk5AVLsomx4jkI3OcqS3sgejxWFRl8hMic4XW/Q9gUoFikuD8IqXbWgzICwHI1bnA/ZntFkAkzSwHsK4cjy4GLakZho4+MJJOLFhJSR5L/B+F3ibDaoyiX397RfKrs7JUoqCWd7DT0iKn7MyE+0M5PE6dBtBc1JUx0q4K0rG1NZIYa8+TQpk1K0zCtLgqd+cXpPZuSkux4tt05iD10EpSQnLp5QsXGK2Qz3EuAUk1YeYkZdma8Ozh6ABlASxGkTyEZLAWAaMmS/sQnHB3J1L8IeFmNH8PTU6wwUADv9/CEOM1DluEK3sNFbibEZzSCndRAHxPwjuQlcgy1oJHshabsoGxccYD7ibPVmlJCsjZUkgPfmQ+kXalo1VEtAMtUshQKwQLENm8XONUW4JRq75+T6GHK9c3Jf8ApXK/FBSz5srInJMSGJ1Q7K8J/KX91oXVOKqyhJUVI2f8vThDbtJRpnTlht2D7gBgRCWbga5Y9q3A/IxtePUk0Z4Z9Mmmhj2cTJXMCJymlqCvEC2U5SQT0LQEtACiM2YAkAgWUNiDA8mXoMpfrb0Z4OTSr4geVofDGWNu+BM8oZF8PJ1Lkpb2YyOgFjdH35xkVtdjPof5l9T3NcyOc0QvHQVELNlEhMaeOCqMBghJRG44BjoGAccT02MUzGbzOg+UXKrmBKCToBFIm1HizKHtH3DUxHIy2LuTzJabEK2A83sx9YiqqU3SniNDx1HWNqEtQ1ItZ7HryEApWVKyyHmKDXTok7uo2AjHVltSXJNOlLB3bQ8APyjpx6wLU1+Um4zq14htgnjzhrJwRTAzpii35EEhI4ur2j7ok/iKaQtMoFCFKuG3u11cephGuat+x3mXwiudwtRBTJWBv4WcdVNd7vCmuw0LUfw1JU1mUjXb80XbEZpuE+ZhNOonELFzSuhPOd7FUn4PNIIMtRtr4deTHSFdMTl8Ta2P6gOMXZM0o9q494gsISpNmKfd6QrzTjHeJWM9TuyghQ0UGGzbcukN8Mx6bTslQzy9uQ5HaD8Q7PS1OUuhXLT/AG/SK7VyJtPZacyP1DT9vOK4s0Z7L6P+ws4q9XHzL/QY5JnDwKAV+lVj+/lDApvvHlUvIv2VX4ftB9PX1KLImk8iX+Lw7Ue9e5ylJdL9j0FV40mwbeKYntJVCxQlXl9DE6e1E/8A8A98L5fzX1G81dU/oW5RfmY4MxtTcRVl49Ur/wC2lPr9REdWZ6zacQN/CEnyAUf+UK1FcyX1/wAHeYuif0HGJYolIupuW58orFbMVNuLI3tc8BwvwHC8FyMMQHUp1ncnT9/N4YolgpPXbYAWt5wYSjfw/V/2QG5S2ey7FeUtcpLpSGDcj1jP72T0JKZYCXLk63OpbjB9VJIsb7XDg7won0II5+6KwcU76itWqGdH2glzgEzfw5g0V+U+e3QwYUHQ35/esU6oolObRJR4nNlWSp0j8qrjy3HlFcaeP+G9uz4/TsZ8mNS5+pbBTiD8gSnMbpZ+kIaPtLIX/ioKDxFx66iH9DUylpIlzQodQWf3xWXitvjTX3X1RGPh6ezsqk+Y6iQWBNoyLArA/wDMPT94yM78Qvzr/v6GlQj+VnrRjBGoyNhE2nWOhGoyOCdpiQRqMggFnaQ/heYispH4qOg/4P8AGMjIjLllFwvcCxg/hK/kix4GgJppWUAOkEsGc8TxMZGRkyfwn7hn617EWNrIlFiRf5GKT24QAZBAAJll2/mMZGRbw38Nj4/WvcZpUTLlklyydf5DHYNoyMjQ/SjJ/MA1ZtEOEqOYhy0bjIhP0MePrQXUqPEwK7ljcHUHQxuMjzprc0o87qAy1NxPxgqjUX1MbjI9PJ6TPEscnQQWIyMjw58nqIX1x8cdUwjIyN2L0o8/J6mGVPtEdPgIPRojy+IjIyH6l1wRYh+by+EJZ2p8vjGRkJDkYwix6wtrkDgN9o1GReAjFUkeH1gdWsajI2R9TMk/Sif+JWNFq9TGRkZDUiVn/9k=",24.700298,46.669208
22,Saudi Arabia,Riyadh,Food,Shawaya House ,https://d2isrguaavypvq.cloudfront.net/images/restaurants/rst_902262.jpg,24.699974,46.671347
23,Saudi Arabia,Riyadh,Park,Al-maather North Park,https://www.trfihi-parks.com/images/parks/3109-mazzar%20shmali.jpg,24.700294,46.662553
24,Saudi Arabia,Riyadh,Park,Green Park,"data:image/jpeg;base64,/9j/4AAQSkZJRgABAQAAAQABAAD/2wCEAAkGBxMTEhUTExIWFRUXGRoXGRgYFxofHRkYHSAdHxsYGhsYHyggGxslGyAeIjEiJSkrLi4uGh8zODMtNygvLisBCgoKDg0OGxAQGy0mICUtLS0vLy0tLS0tLS0tLS0tLS0tLS0tLS0tLS0tLS0tLS0tLS0tLS0tLS0tLS0tLS0tLf/AABEIAK8BHwMBIgACEQEDEQH/xAAbAAACAgMBAAAAAAAAAAAAAAAFBgMEAAECB//EAD8QAAECBAUBBgQEBQMEAgMAAAECEQADITEEBRJBUWEGEyJxgZEyobHwFELB0SNSYuHxBzOCQ3KSshUkFpOi/8QAGQEAAwEBAQAAAAAAAAAAAAAAAQIDAAQF/8QALBEAAgICAgEDAwMEAwAAAAAAAAECEQMhEjFBBCJRE2GhFDLwQoGR4TNx0f/aAAwDAQACEQMRAD8AFSO2WDSskzD/APrXQ/8AjzDjhf8AUDDdyFImalqIShLEFyw1EEDwpdzzaPOcFJkzZ5VoH+0CHoykKAJB50i/WN4vEJcFMlOpTuSkBQU5C0q2IJYh/LaPNmlpmeV1osY+YC60fEoaiQ4ckuVHcOS/F2iqnEqCRqS4J8TmqXsQeDsX2i0rEhd16dXhBADMHd7kFvmLuYGzUTEJIcFNdwx39v7dIila2c6VstzsSCsoIJBL0u538Q8+kbwWLCHS4ZwUuQ5BqbWvz9KUMPmk3WAUIVoFKfl3YixtFxMmW5mAKB00CjcvX4i4YfSC48eylfIXk4uWlR8VVXYF/IEXjrDYkIW4ly1MT8Tv6kVcBzZr03gWiUkgEKKSeQDwWBNWf97PFyShLBRCnOnUkublgWHSjikSdDKLQWx60KUG3SdQBch66rvVjufI0gUqfolkhSlEfnbcmykkBqP7j1GYvEzZalImI1uAE6BUgKdqcBRbiLuGx6UklExQYaX3KRvXghNDbrSD9PjFBCacSpIBSlRWeBQJ01VQu4LU3paJ8LmC1SVKJUqmlSk6SyvynSRV7X2iXA45IBIQkF/ypoCeQLb0cN5WCdrD3KtQmlJOkhrKHnuTV3u0SilKXFoFF1TzEhQUDMS4BHzfitfkYozZqdC5U0JGkDSXN99LbVd6PUsdwknNu7fwhTu9afK+3ygnhcauYpMsKHoXZNCEkD4o6uDRloky/MyP4Uwgt8OsODydL2KXg4cx7knSRRlaBt/UL/qwgThEyZpLAoWCpvDqdQp8LUFLU9Is5diElKgsii2LJcFRDHw0Lbu3Xl0kvIkonoeSduyoolLAcsdZI0hNHfT9bQ4f/LSagzUggsQT8/LraPCMfhlFCVyZqgUBlSywDOEkCzVa9K3hj7L5my/4xGnUkFYU5DF9CWIUl2q+wO0dGP1LS2FNrs9hSoEOKiNwkSe3kgFCQFsCpJcB1N8BckVJvTniGvDZlKWdImIK90haSR0oY74zi+mULkZGRkMYyMjIyMYyMjIyMYyMjIyMYyMjIyMYyMjIyMYyMjmY7HSz7PZ+seaZ7/qHicFijInyJagEpU6NTEEXBNqvtvAckuzMc+1OdowsrUVMpTpRb4muX2EefTv9UJplaAgd6DVSQ6Sn1sr3F7Qo9te3szHHSUpTLSSUJAc8VUbnyG8LKkgB10301HqonfoI555HeicpfAWywDvzqNFSp1Bt4X23cdLRk+YDLVqf0DbsFEbpP1t11lSx30hk1PeJfkEFgRsXJEUpmbv3agSl9SFJXXSOGsXr845ZptKvuLtpEmCkoWACk6DZiaKPzNP2jvMJgTL7lYAWFODpNLV8VnFN7FxxXw6FJWoIJLMW4UTQNYmvy8n7xGYlSQAoKCtSVCZ+VIdiyrGhPr5QtNyCr+ChKmakqfoav0c78CLk1PwmYnSq9XSQfUM1j5GKOX4qWrwKFNnHlQnh/oIYZqgtAloKdUtk6VWDG6SKpIFCKvzDTtOinL5I5AXKQ4IU3qC56u4NaAVg7kecyxQpBASpwACxFFEHya2wNOFiZnHeI0rQEkAyiwZwLUFARb0EZiJCQgqStSSE6g4JCkknUxpUl7g0HSspY1JVIKoZJMmSZipiVPTSpn0hf8yS5Bq92F7XiVWSpf8AhpJSoKJLAh+CBUAk28oE5Lm7BSXGn4Vmw2qdiHAam8HsvzZCRqmJUx1K0hL0YVbapp9vCanF6Dpg1WFMqYVIqmhcFtNmbmhNP2i1/wDIGYgomKBR/MElwC7gsNiA+1SKEuLqJg1FUnxBRpViP1A3D77vA7PZGkA6jLf8oQwUXu76WIe7EG9xBT5NJibQk4hWlbGUEmjECjbFL3SaF6xdwktenVK0VI1U8YU+3hI6/bQPzCY8xQ1BTNpKCwIZyfPdtqxZwGORKOo6eQ+pwW2ZnIPIO4jvadBGFcueo6g7BQfSkhfmXoWNd3D2iqvKpkyfrSU6HZTX1gFiUUIBA5Lt1juXmEqYlKgpaVFQLJJIUzhy4+HkOG2aJstwnf46WgEJKSBMYnUWS/h3cMU+o2pEdo1FjBjw6EzdM+qDqoF/1UDjettozI0zEGq2c7nSX/lD0qHIqI9Lldn8FiUqlrkgLA096A0xJIoQu5bq4jy5OEnImmWnEFS0TFApI0hQSSHSag23IvCShUbvsE4tF2bPV3pdTCqmJ+EtUEXpT3ghl+ZhMxBCFeFQWPFcMHSNwGpahvFabK1jvdSQSzggEGja3T5XZxXyipMSUq1hIJKS6XpwWKW9/OBCQD0XBduJSFLK5KwdtKioKPDGge7/AEhhyXtAMRZOks6Ul3I5szR46mcSyVJYs7/35+sEMPmakKCkLUCnh2HJBFrX3rzHVH1Mk9hs9uEbhByHtv3lJs6WjT/MG1udiHZgON4dsDjETUBaFAgj26EFiPUCOyGSM+gpliMjIyHCZGRkaTGMbjIyMjGMjSlAVNAI2Y8e/wBQu3YUFYbu1pmJWfEibNSjwu2yCquxBTQX2Vyox6FmvamRL0olrlzpsyiJaZiXV1o5AapLWhKzL/T+ViFKM7FzRNVUDUhQQDZICk6ikeY9I8s7P58cNipWIUE6EqOpIPj0kaSQ+41P1Yw8Ht/gjiVTda/hb/bUz244iE234NHa2ee53lkzCYhcmaoFUssCLKBAIUH2IrAydN8/VzBHtTm5xOJmTyG1sEh7JAAHqwf1gKtVWaBFXtkmleg9k2MKscgku0wANZnZ/W8S5jgyULUkE6T4g1Td9I4DEeUCctmtOSWsu/kRxByZjyF4hD0TOmBipiwU7dAQSB/aFyRaSaHaroCYPGqTq0lwkanPSgD3ZyI7xylnTMV8U11WFEWBO1S59HN4mzmTLC9aCohaQouANT1BDNcXDUL3gbMxKiS6moAR5WEaKT9yQ6qrNLGmtC/SCuQIVNnkEuUpJZ21lPL3LetIC974knrWNySSVK1EEfC3PpakO42jKrHDtbJw0tGHnygRMKj3ifyqDBWoB6EGhs9IWcTmClFnLbA7UYjyiGa5ZT8Ud9rh4iIhVBJbNLsYsnxfgZwkDgV9m3FCegeDuVI0Dvu91oALoIDNuCH4LAj+0J+SpKpiUnUUmjAtUkByXtzBudmaZCTKEuoK5cxJNlWJZyxB+hYxDJj3SFZYynMVKmMD4SOQKnjlvvqy5jiFTJC0M6ihQB1I8JLM4mGxLgt4g7phLE2W6WISs0pVuvGxtu0WsXj5aGT35SdBGsJB5YqH5hS17eUSli5SToG0LciQVLKdTEFiyk7UoXY+kWMFKWpVFhTaix3Iqzu5BSLiB0ueULCkliDqB63f32jJZL+F9X1O8dzQQ3hcVKWDqSlAFQK+vhdqhrDb0jvBZqqROQuQChaFahV36V8yN6GB0maVBKQxd/Tr5CLGY4dSDLWGALaiAWSurN5gXFInxthp0PWI7dYwKVNR3CSUpKvCrwklQF1XoDUbwBy6eVELIXpJdSkk3JqSRs935eB2GxoaaqcoEqKQp07gLZKWIpRveLmQZiiWEL1EaSVFIAdiKvzbfnbeM4NLoEuUuwmF/iASSpCVKJZ2CiS/kfCHrfVFuRg1JDOFBzV6pOzNyOf0haTmZExa0EJDlQSri5Bc+Qv6QZws0kmbqFBVHhYDSa8+oA/ZJRcTUVsxwU04mXLBIRMWhJWCWBUQDqKb6TXaHntJkOHw8pExE1YUV9yoTDVRZTkFIcWPSotCrjcxRRlsVOwILUpsOr15gec001mAfEHL6qlw45oPduIZe6NM2qCCkSwdZWogtpqliG5sSOo3j1bsRj0KKgNCS6dKQEJJGgVZLPVzalo8x7N51KlFUwoUspBIerKNlDUGfz2O0ekZDliJk+ZiUNoWkFGglICil1gFLH4n4qTBxJxloMVrQ8ExuAmAztCkJcEOkadRqqj+8Tzs7lJOlSgDx+tI71kj8hcWgo8aTALMe1eHko1lRPAANT0JDRQyjtxKmqKVJKDVn3G23EZ5IryAbo0pTQHX2ilDn2hJ7Qf6gpAnywQ5QFS3cEOlw4b09jAeSKDxY69oswXJSlaQVDUkeEKNyB+Wu9No8E/1Hx+Em4lRkd73hPiDskEt+Ug0vQaaneHKT26mzJKUpmJSypf5XX8aajU4cXarwkZ9JOudNlyZq9ZK+877xkKcLDCglkg0ZRYgcwimm7sLWqFJUxZB0pWrSCSyTQbktYRCgsl+sF5+VYzu9XdzES1jUwSwIcipGkGr02e0Chg1gNpJPxM21f2h7VE6I5iojSoxoDesaJL8RqBQ2Zz+Elq0SklM4BOqqiNd1OSWcjYClov9r8mS/eykkKUhU1akuxN2VxQH3ELacEr+KoN/DUygbu559o9EwuNOlKdjLRqpsQB7e0c2WfCNr5KuaW2JWCzCUJaEz5Zm0ZAYMkDg9YvZTjcFMUUpw6E1DlSQS3QtbmGT/wDHZC0gaQCCqz/EdnPyBe8RKyWXLEtSpaSldFKAA0lmYtUGm5v7RzfqYVSuzLLET80kSpU0goHxEsQG07dQIJ4XLZeIkTTLlpT3ae8UzPoS5LECpLafWCOM7Iy8QsrTPUCQWSovYUAfa2/NoM9j8HLwM4KUokFBBSoN4hpWCDb4k26wf1EH03Zo5ItnlmKlpBBTVNx5OR7wVwysN3IUtCip9NFX3JYWYUd/fZ47d4Q4jDTZuofw5ve6QNl0I6M59oT84ydOGlYUEa1TklRY86GHQjU1ovDLHJ0M1e0R42UJC1LSCZbJKSCSCSPCXN+XibHzQuVNxK0kqmIHup0H6A+kQ4pSu6lGY+nuWHBCVTBU7kM0C8co92lIcJqBqd6He3LswvFFC6Yr0zuSpIT3pNCdId6Eh1H/AByIYp2GkoCE/hpczvSCVCplABiCbAFSklmBYHmiqtf/ANdCWqJhL+aWb5ReRmi5aUhyxAJG9hX7u0aafgzdEp7MTNZSvwABw5ckjysD+sHcs7FS1MoYhVQfyBw4oC7sX3p6QvZhmczXqJNDTlvMdYPZR2hH5idSmBoTUM21zU+kQm8tWmScmQyuz/czyO9SktQKYk6kh2YM19vpF7N8pmqQpJlhSVJ1d4hQYd2CugIaoBF6v6RJ2txWlMhenxJUUk8UZiehi+Mf3UmaC6EFJQCX8VC56hiCfNomsuSlIKyMUskwUudMWFlOgLBvRekKSlr0KiD5OIKrygSkzkqlsiYRomCbRJZgksm5J3YXG7wuScWpQUSwPgPA+OttqmHXL8Qg4WamcUlBSKKdqgNzYt1iuWc4tPx8DOTT0IHdlYJcktYBy24p7xLl09SQxSpQU4pyQ3u/0i2rMEobuUhBFlC7Q64PNFGWkzUs7uwZks5UadY2TNJL9oHL7Ajsr2aGJC0TJ6pUxiUqLKQyR49Y+J2ZmI39SGAwMsqZM9afCZbpwxDpISCdClEpJuXrS4eB+PxSU/hVqWUqOyUhRI/K/iHk93eJ8PMMlWIWlSglM1mYhI1KdyOQ4A8oHOTV0FS+waxuSiTrQko0aNQJLak6XBZyQbU/vB2ZmgROWmQqZpVLQhihRQfCEljSgY1Ae1do887XZj3qEsWUk1SHbqzgOz+0VUY4KwakrmKBExJSwJIY3TUD4XBq1o3GVJ0hnOn0eiZVmPdJlqmTEktQaikpdBZ9SCT6UjrP0TZ0zWS6VBxpZ2dtJBaoI9acx57nEtX4XD6VFZckOmukgE+x2MOGR5qEYdCJinUBVg7f0kjf92jN6saErdS6NZ7i/wCGNaQO5A00FTVioVcnl9rUiDAZnLmf7ad3Q6R+WrKAoQeOI4zfCz8QlYkylLQsyw4Bd36gjTuSbMIGZQZmEmmXNkjTqI1qAdOlwShgCxNC4txDfTVWzSSsbJGPxLhQV3a9VxpZL3OmoIqzCE7HiXOUtc/FgTQhLApW3w0AdLNUDfcvDNjMwShPiBSHuRS4tHnfaDHImS5QQoakICVJA3YVdq8Q0FrQciUegnLnSpRBTie8DpdpagHCklyVdBs5pDD+Owy6y5qSpKHYgp3Uonijn2jy1KixPnBXC4dUmWJkxWkTkHuy70PxOBUUNjd3gzxvuyHKQzZ72iAUnSpMwIDBKlE3HiKaMPqYD4rP1FalSxo1ISi4LMVF7XL2rveFrEqrQv6R2slnh1jVbNciefqWoqKn1HUep5YRxoBDOH5iITHERg8B4emBSYSw+LKe8SP+o7v7+7w54FZKEF0gHDoBf/uIN+ghNEhSD/EluGLW33pxeDSkGZKwidekK1JJ6BX94lkinFhae0xomy5oTr8LFYUkCpIdvboINApVrlqD0BIalqbhqt0p7gMHPSuSZdCoEJlCt3qU1+G7mO8Zm6pYCmDoBSsuzVoK/wDtHmSheiPEp5JipvezUhFX8ID6WFSQDUhwawQ7SKMyXKmiqgoghJO9EmpqH6QNylSyRMCVF5alJcjwJC6/DXjYVPEUO0WMKcRoQrSEMpSdVHFbGx6VaK/TudjtU7Y0ZDjNQmBRNSz3FkuC93+UWv8AVPLVmRgVoRqKVr+FJNCZZqwpaBeVqVLwpWF+JwrSGDFVya7D7MMfaLMfxGFkSkL7pSVeJeoB70T4g5cMQSLGDiUYTcmWxfIi55IAwkpKmSSJqWoyQFLNW/73hMmoaVVXi1KFLfkIqDu59o9AxGTJMo6pgUorSw/pmTAlTHUaAv5UipP7JSCgiSvXMQpIUjW3AUQ7tzWjO1o6o+ogl/caT2KMmRqlFnOnSSBcuWeL2Z4IDDpUkOUnQo+nnYkNDPJySQhRlpmCXMcjTMmUIIoNSBb5v8usV2eckGax2IJUlxfZ/VvSFfqVaFcvsLmZyQMImYW1mcqUGIoEpBKudx0rG8uxZVPCwwqFECrLbS9TXl+sHpXZxbkGTOnJLatGki43aigz0rw0MGX9he7CjLQtCy1VTCkMwP8AUaGjgA0gPJGtC8HLpATtPi9KiihoCkA/ElJfUxoGU/mBXaJsRgJipIlaUkKGo94ptJIIBoDWr0b1BMMCOz8rUhc9ckzEgOlu8Zvh0lQCgze/pFxEvDSwwK1hyf4kxk128Z+Gti97mOdzUaS7Mo12zzpWQTNaJRCKyjpIN9C0F1AWv8oPLyrEKSqXIlhco6AoeNLqQpwtTJeiur0FDBrFS0TMTh0ylyJRKZ41JKPD4Ul1limyY4kTC4MzMhOSC38MakkVpqK2NrtFZTyUpf6GfyDsL2M0+Gb+FSHcgTpyvlou3SCx7NYXSQZgZgNIQsinVVbvtE03MsMl/EtW5o31EDE9p5CkBUuVML2KyA9a/CCfeIN5pbSX+Rfd3SOv/j5SlqQwXpA0qnEhJ/pSpMrUluebPArKcIZ6pyu6lySlYUUTyFO6EmjorUOQ4+ICl4uTc/B/6BPTVfydIiPALMxazKkLKlK8TqGlLAAMWparxXG5xVtAuXwDkyu8krWpCEkJUP4qUJWSz6gNYdydhtaJZWGWqU0uSqZsSkIej+JhM3NqcQ0ysgQQFTS6t0pLjy1Gp9GjrNsQMNJPcSTqNhLlktySEj6x0Q5Ne5UVjBvbF3C44SWRNwpKksR3rU8gn9YsT5U7HLQEhSBshCgx5ICks5s5LQvDGHXqmCa5Ll0KBJ6uIauzPa3DSCtS5c9SmCUsigG5qRXa1n5jY42/d0CnRew+BzWQiYUzFISkFV8Mbc+E2At+8J2ZyJy16ps8qJcn4RU1NkjeHTOf9QsPNkrlolzwosHKA2lw/wCZxxCPjcX3lUomnyQs/QRbIk1QVG+wsnMsWuXpGE72WzOySC1LmYD8oW8ywcyWiYZkmZLdJ0p7yW9moNRJFRYQ19n/AMUJbSZSUgEv3wmAl/5QBtBTH4Ez5eickA3CkBXhPIdLtyI1atdmlA89zPDIljX3omMpHgTNcnxC3hFYjM1QllfeqWdpSiHG26GAbjiLeZ4EyVaJyCSCCNKmBbcFqiK5xEsU0e6lfoGhVklXRC5fALTh0kaikJLtpCCWHLkgRzLkyypYWCB4W0gDnYmCM/Fy0h+6J/7VmnvFKRNlFayQoA6WGtLilXdNaxlyqxfctmJyqQbTVpPWW/8A6mOFZCNpmr/iU/UxaJks+qYn0Sr6ERcl4FBAUnEpryCD8iYKlMaLl8G86xCJ04lE0hCKbkgPsD0iXJpaVSZSi6hKmTGABJUCAWYXtaBEjs5PmKuBqsdQLcAsaU5gvkeUd7KmSDMCFSpurVViQCCx69WhLjT2Py5MIYrGy0qOqWqXMBqAfCgKLnUS1GMazLO0KlIQgpUpR1OkVJq4c7gfXiJsJkTy5gmTiVklZUDVQA+FQLs7XcBnvF/Bdn0Swky5fdk+LT4l3oxUXBA+TilY5HLGhWvkFSp60SUhSCoSnSkIahLO6qEuwO9vcVKyZc1eoSlzCoa3IN+CXqWr/mG6XrUrutH8ROktoNS1CFBOkdPD5C4BaXkkxTqTJTLXVlNpuahQevIYMDVmNMsjXSDFSl4KGUDCazLmKmaUpBICDSZ4goagGKdDUtf0N5d2cyuc4QFjSkC5HhNQUkW5oxEYrs1rKVTF1TUFKQC/OqlW6F69Gsyxh5LkFJVu1T7ABP2I11stGLW5UidPY3L1I7qWdLBJ8KxqZJBBOoG5F2jJvYOQZne/iJwUwFFpFBtRP2wirP7QuGSgnepA9gDFOdnE42JSKfD9veM88F4Fnmxrzf8AYLYjsNgSrvJs2YTq1OqcBXh6FujtFzC5Tl8v4Vor/NNf6lnhTXU6iSrqYjVQuJZPUFNvrCP1PxEj+o+EP6kYZI/3QAP66B7bwu9pEiXpKpmImoVqcyZOtCNLUXoU4vwbG0KM/DLUoE6h/wAhy7M3PL7xDg8vmypvey1+I9VIoaEaq7XYesMs0Zakl+R/1F6kMmAzDKpgDYog/wBR0f8AskD5xvGdjvxC9eHxxElgwDLru5QwI9YWOzuRSJK0mdKUoBnZKFJLDqsFjxpix2nyhEzFS14MCRLMtllCdHj1KelKkN0i0fo3qhkoeKLc/sYiRicIlc/vEzlzJamRpIAlqVclXHENuC7J4OWhMtKVEIfS8xTh71DQnT8tkpOB1TZutWIUhZ7+oQZczxCvhNLxf7S5cmWhH4TFzysrCSFT3ASQa0IbxNUlorJxpbKpjYOz2Gt3QPmSf/Yws5jmWW4dZkSkyErFT4QEjyYAE+vvDZ2eytMtBJnzMRrSAe8mBaXHxaaWJfcxrHdjMBOqvCy35SNJ/wD5aBw5LTC5CZIxcuazHDMS2oIBbzcliD0i1i8VoQ6cRrLtplS0Fv8AzUkD7pHPaDstlGEDGWorV+VM9YIGxNaDiEufhcO/gkgDgrWtj/zJjmkuDpyv+f8AYLSWxjTmmINpc5Y6DDe1Z14tSp2IWWVhcTyNP4dL+vemF7C5YdOsaUA8JqfakbxHhJrPWog1RLUQAGqsgnSkXisYzfj8v/0PStjTLyHGTH0yJieq8Ylh1IlB/R4jT2YzA6kGdIBJDDVi1ClKqLMGO1PaFxSMSapwuOT5SnHp43bdohxSp6UvMl45LFn7pbDqdKrW33EXjBr+n8iNjDjOzuYyyy0S5guDLxZln1TNFvWA07GYmUWUielVf+th5g9+8H0gevCKJJTObooGv1ihOStJKSH2pv7bROc2v6fyJOTj2g+O008M6VeqZP6TxFzLc1nzXCpiJIG82WgA9BpmqJ9mhFOXSiXKD6Ej94c8s7GYZctMzVPGoO2sU+UNGfLr+fkOPIpnOY4zSSlapE4HdIIA84oSs0kpLGXLA/pP28HU9hcKTUzT/wAz+jRbT2TwaB/DQErqy38STyCo0hlCV9j8SpMyLDzEgsFA1DQDybJJasRjEatIQuWkV/o8jGs9mGVMlIRjdaVllnWPANSRXSeCT6RQyxEjvcVqxiwO+0pKT/uBvjJb5xZNCuSCuM7Lyy9WJ3ZP1Z2gXN7GqsFBhzEvaFCJUnXJxS5i9QASZgNNyyawIyjFmYv+Os6ANnd9qlzBtAbHjK8amfIQooKlFgAlCDQHTUaXLO9xQn1GZPgD+PxOHJIUSlQKqF9OsPdi0OUnMpUiUkDRq0gES06RYO5FD+8IuMzFQzXvQNJUlBb00/pHDiS5SSfgHGEfNsdJXZJBm94pbEW7sqFOoKtNQ90mDCcPhZf+5MBIp4l/VIZJ/wDGFSbmE0uDMJpbnrRqHpECQ5sL+0czmkuhH6iC/bEcJmf4dNJaFLcU0pZJ+/KBuK7QzDRKUoHnXoXUG5gMht3B5tQMagihrHQWBZJ5uNr38/lCSySZOXqJvzRZVMUp9ZUo9SaA093/AF9eFCxCKbKD38/s0iopbeKpDktSnEa/FBLgpPL+n3bmJ0yLd9ltSa2D9bjj1Ebfy+3+3il+NFGB996j784lE5qPxfZ+R5N9vA4sBOQr8pA+6bfbxylEwvbj4h9ikRIxIdqetLbbxLKxSQL1PUfqf7VjUFUYrDTdiCPL6MeBGjImVBLNs396DzieTP2Okbe/kYllTkGvmL/fWBseKiUVSlDm3PrvxGKlFzVT03H7RNOxINEOpXCTXbiJpGVzzWZ/DT/KBVuv8vv6Q8ISl0UjicugXOwaVTJbhaiFakgNcgirDgm8NeXdn5aaziC/5Uv8yKv5R3h8cJSdMtASOaknq5vEOIzkoBWuYUgXJMdkPTa951wwqKth7vESk0ZKRYD9qQrdqe3K5ICZKSVF6lyzdBv5naFnPe1a5wKEkhPL1PSm3SF2ZOFSz9T9vDuaWoizyrpGsZnkxalKVqUs1US7nqIK5JL7wCatJCdgSfF1/wC3zvEeTYATWUr/AGxuknxHgObQenEAMBYUHQesNDGntoEIW7kQqxJUoAJN0pDAmqiEpFOSQPWPR8kydEnDmUoArmh5oBoSU6SkP+UAMPU7wtdgsoStX4whkspMpJFzYzg/IonoVHcQ9YWY739QBHZCNGnK3RYRRPkOkAO1uZd1hZpcOsFCfELqDFmuwJPpBmfNbc+QDvCJ2+zEK7qWgGh1kENtQ+rn2hpdCx2xXwaTQ0+cBsyV41EtcwwyJims0K+IUdaju555jjz9IfN+0jBGw+sN/ZLMV6Cgksg08jt7vChqgp2exOmaynIUGapr9vEcUqmjng0pIe1zNW/1gfjsKFpIL1BD7iJ0TAdm++saWBHoHUeb5llapC9Cy4PwKAuOOhEUJeEAeoLl/usei5rlSJ6ChV7pLVBhEnyFy1GWsEKB9+o6Ry5YOPXRxZsfHa6IRLEaJ6Rspjkg8xE57HuQWAYUKU/EbFgzPt1hbz1JTjZRI0uhI6eFR3hhlyzpS4dwADz4QW6F6wv9ph/Fwy9iVp9tP7mE9P8A8n+SuP8AcNM3/tIt5C3T5RpaSzkpFTuG52qPXraIVzwdLuX+68/5jFEsCUsCObEbn2sYg1uhSdDevPFRx6X5iNUxKSw8wUhqh7denQRXmTlj4m6EEu9A49uu0UpmIL88A8+vPnGUQF7E4jfS+178u5ikvElVkgeYNP1/zHH41vy7387Efe8a/HKsyadB+sPxMcqnGrqrSg/eK/4gmyjE5xBV+Ug0sKeTcRXFdq72++YajGHEqpcjrXiOlYpXLfd41pSN22Z/v7MW8JlE+aHCdCP51UHpuryEFRvoaMJS0ionFE3UR91vF/BZZPmmpKEfzEGvkN/pBfAZFKlMW1q/mWLH+lNvd4vTVk7/AH99IvD0/lnVj9N5kZl2FRIrLfXbWW1eh23oInmY1ZutXuYrJeKmNzJKBTTq4Jp6tF3xgjq1FF7E5iJY1EnoHJfyaE/McymTD41UckBmbhn/AFjqZPBqokku9TTyp8oidFRX67XFI455nJ6ObJlctIoax0F2dou5bglTTc6RcgfIHmLGDy7WfCWA+JQG36GDXeIQnSkMB9uesPjhy2xseJvbNvpAAQWFAG+kQ4LA/iJwluUadK5qrsgvpSOFKI5s52rVxeNVQIBUtRCUJb4lmw8rk9AYdsly04dGhCRrUdS1MCVKN6mpADJD7R2RVlMkqVIYMOEqCdBUlKRpAAYAWAAOzAQQSWF4pYUkAPSO8RiFAOlL/P7/ALRYgcTMV4viNNmo9Kvt/mPNe0uJ77FzHc6SUCooEvSnV4e8fj1SpZmKQPAFKPz/AE25jy2RPUS6i7l/XcxOb8FcXdhNC0pSSSAOX/tCuq5YinuflDBiCSghx9YW5sgAuA7+gH6RzZg5LO2tt5/pHchQBSRZwaGIFEjmu37A0J6xiSOPf/Mc5zyPQpMxwCDSJtUCcpxOuUmhcfp/aCCTHpRdqzpTtWdKU/HpAzPcp79LpLLFj+nlBEq84jXU/wCRBaTVMDVnna0FJKVUUmhHERqSIO9qsoU/fS/+Qc+8LsmYCN3+7RxTxuLODJjcWPKJzSwAA6kgX+didr7QA7ZgpTKXRu8cAF2dNbWs0MelBQkI+ApBBVcFmLswD15od7lc7XnVhnGrwqS4UPhLsa8EEXiGB1kRoakEsFMJlIU7ukbswqPb7vFhU+ZZIsLX5aooaRU7LqfDI8IVccFga1bg2giiYnSCkDeoDb1sKX358oXJqTBLtlJXeVcaRyefWlekRHU93+3sLEV9oKA/lZRuKpeo+G/QEOOsaMsag6nFGNbjw1Javp/dVIAJAs+1SGv1Zvt4wyqfDwPJ3aLwmoSWUrihuz1an19onwUlWJURLllZpUBtt+PMmNyYVG9ICT1NV2I+3aJcuwc2cWlgkfzlgB1J/wAw3SOx6AQqYsFTfACGB3cg18hFpUsIGkFIAskBhHRDE5L3HTj9K3uQKyzIEIqr+Ktg7jwgjcBq+ZgmtZ82oOPLj0iutZPlxG0E8t7fOOpRUejsjFR0iRMt7j5s/wChjspSPyt/yeNBZ6H6efSFfPs0WVaQCwBB69OCIEpcUaUuJdzTMkgEJZ9yPn/mF1ayLChq9bdSL0+ccGc7lqxW761vcva0c025dkJO+yUYlSiQUtXYvcXpRos4bCrV4QbeduoO8V8NJUtTBO5D1bzv9IZJUsS06U+p5hoY78AxwXZGhOlLDV5vfziuou9CyQ58QAA3v+kWZ86lwPSKmEwhxU9KEumVL8U1X83Ev1avSOhLwXbpBrsdgir/AO1NYJIUJCVVKUFvH0KmYNsesNmGksSddzwWrtf7YxXEpCmsNLWFujcRbloADJPD/wB4slWjmbvZc7xhRUVZs+axIt148o4mykquo+hjapgFereQ3ggAfbLHqErS9FsGpsdT+VveE1AJNKQR7T4lJmaCp9Go8sVkqI9BpHpFCRL4vE5u3RfGqVkuLUsS1Jo5BYl2eF1CF7kXYVv82aGLHKOgi52d9uWhaM7ZRS+wBLRCdWDJXbLBkkWD+v7fd4iVKNK/KnzjrWa/Rtt2IvEhW1z9tZt4m6oR8JIYOzSyAUk2MGwhv8+0LnZxQdTqd2uB9vDUdN3J9I6MT9qGgtaIifKONXpG1KrSOFev35RdDHSTsYTO02TiWrvEJ8JuOvMN7xigFBjWBKPJCSimqYKw81LJHeN4QCk7ECocEsDYnrwYGdppoXhZo1Anwk9Skj9GMDpWIZN3ZwX3AH+PlA/G4jUNO5B2+9482EGp39zz09hXs1iP4IrY2+r7M1PaCgxoSgsr4qgkC7u4dr09oWst8CSm4Nhvu/3wYtBIqGfff6cwckU5tjTdy0FRmQBOlRq+52alLiIZuLMwgFRJUTTqb26xey3s0uYyl/w0Gv8AUodAfrDLg8DKlBpaQOVG/uf0gxw2Xx+nctvQAwfZ5d5ywCbJBcin5m+kMmET3SAhB0J4FH6nf3jorAH2P0jlcwm5+9o6IwS8HZDHGHRi5hPTziNSvM9I0o+vqPsRmh/8RQcx3jmZMSkEkilb+/35R2qlTClneZd6QlBoDsb8XoYScuKEnPiiTMc/UpwgEJDu16fe0CVrJspjet2MQzFVYgAv5uOPaMCS7hKdrv8AWOdtt2zlc22doqWJYgPV/N7dRFrD4aYshKdJJffi5N6dYqy5SyWA9A3vDXgsuTLSALm5/QcCHhFNloRssYPKkSkNq1KNSXuf0A4jJmHTsTERle3SBmbIKQVeJTB2Dn0YbxfoqkjrNF+HupXimrbQOKgEk8AEn0hlyPLO4lCUkvupRJdSjc1228mhY7L4dY/jzE/xF0SD+VFwK7w3YfEE7MYdKkRnK2XcLJKS7htothQ++fveKKZn31/b940ucRR+PX75giFqaXp87sN/094pYxS+7WlJILKAUdibGgoBfaNomOSWb76tArOsUQlSRTUltT7mjezn0hrBQt4tBmTVTCQdZKh0G22wpFjDpIo7dIyXKAF38nieWh7AxE6ktFPOUgpCS9Tdvse8AJsptyqtqO/IpB7OGCQDc9f1/eF8pdW4Yc0vyP3iUmrFkkYRUDS/mQzHggRjgmrD736RiiwJelLMSOpjhSjv934B2rCVolSXQUyVeldOjhresOkttNIRMpUBMcu160vDjhjQNURbD0HH8FooP6xruzyIxIPHXe0aJPT3i1lDSgBuPeITN8vvyiUv0EbQgN8fsIIBAmIYDoGHUc+36RD3aXoWNqh/LniLuVZbMnKYNQVcj7vDNgMqlSdJbWsBiouz/wDa7RxRg2zix4JSd+Bey7s1PmF1Hu08njoBeGvKstRJBA8at1FvkDaLRnF/FX7+UbUtq7dIuoo7YYIx2TIVvc/fvHYD/wCYgS39v3i2gCCVOFhtj84j0xaIisaUjJgo4KetIzUwqaRpYiGcQQ1vKMYBZ/nJAKU+ROw/v0hWOKBo548rQy51g9YOx2PPnCTOSpCmPPzhZR5HPki2EUly+l60p1++NotrWoMQL9QK8E7/AKUipIxbh9xz14+UdIWGINR+/pXaIMnVEqpqgQoO9Lf5hiy3PXpMp1b6wtLpx7R0FlIBf7/SMm10aEmnaHzU4cMRyOIhKQYUcJmcxDpSpn++ta/OLErPJoBcueqRz5xRZPlFvrIaEApsYml4xXT2P7wqI7QzVJBCUGnH922iaVn5upI9BD/WRuURpOMO6U/P942nGG2ke8LEvOASSUvw39x9Y6XnwADIPqfb0pBWVG9jGP8AEqNg3o8Ul1LrUT8vlaBo7RoeqS3SK+K7RprpRXrz/iN9VG5QQaCRt844mzwj4iB+0J0zNJhFZh5YU9i0VlTlKLFRJ5hXN+ED6vwMOcY2VM8IVqoTTluX6wGmACmpI6M/lX7tFdKy7XPMbMp+oJoLV9/KJt/IHks6RMYM+rdh97Rr8QS1WSLWtwABb2jBh1BwAH4fmvEcmak1JfyDCvMYnVsmlVIIVQNcfrDtgprU2ox+/SECSoAtuC37vDp2emuhG5FOLU6xTGqseCaYcaxIpG5h8OouB5fX/MdrtYV6xXQE1cAg7Ob+0WKg/EZlYAO5YXJJ6CLMvvqOlKR10v8ArFablJmVlqbSXSbFJ6EvHX46chJ1y0rrRixPm9H9owrs/9k=",24.701659,46.678647
25,Saudi Arabia,Riyadh,Park,World Sights Park,https://i.ytimg.com/vi/FHLprWJ7r6w/maxresdefault.jpg,24.800186,46.736683